STARLINK-1130 (DARKSAT) 
1 44932C 20001U   21126.06476749  .00005561  00000-0  37276-3 0  1267
2 44932  53.0592   6.2768 0001636  81.2475  72.4597 15.06378807    10